{"type": "FeatureCollection", "features": [ {"type": "Feature", "properties": {"norad_id": 34400, "name": "COSMOS 2251 DEB", "group": "cosmos-2251-debris", "lat": 57.085647783074485, "lon": 154.93868911002022, "alt_km": 388.88593966282406, "timestamp": "2025-12-22T15:43:49.403795+00:00", "meta": {"OBJECT_NAME": "COSMOS 2251 DEB", "OBJECT_ID": "1993-036QR", "EPOCH": "2025-12-21T23:48:22.087584", "MEAN_MOTION": 15.57468025, "ECCENTRICITY": 0.0003063, "INCLINATION": 73.963, "RA_OF_ASC_NODE": 2.8018, "ARG_OF_PERICENTER": 231.6237, "MEAN_ANOMALY": 128.4704, "EPHEMERIS_TYPE": 0, "CLASSIFICATION_TYPE": "U", "NORAD_CAT_ID": 34400, "ELEMENT_SET_NO": 999, "REV_AT_EPOCH": 90118, "BSTAR": 0.0038028, "MEAN_MOTION_DOT": 0.0028987, "MEAN_MOTION_DDOT": 0}, "tle": {"line1": "1 34400U 93036QR  25355.99192231  .00289870  00000+0  38028-2 0  9994", "line2": "2 34400  73.9630   2.8018 0003063 231.6237 128.4704 15.57468025901184"}}, "geometry": {"type": "Point", "coordinates": [154.93868911002022, 57.085647783074485]}}, {"type": "Feature", "properties": {"norad_id": 34409, "name": "COSMOS 2251 DEB", "group": "cosmos-2251-debris", "lat": 33.15136194475896, "lon": 97.24951200156677, "alt_km": 743.7769154495354, "timestamp": "2025-12-22T15:43:49.403805+00:00", "meta": {"OBJECT_NAME": "COSMOS 2251 DEB", "OBJECT_ID": "1993-036RA", "EPOCH": "2025-12-21T21:12:42.172416", "MEAN_MOTION": 14.5804854, "ECCENTRICITY": 0.00802645, "INCLINATION": 74.0637, "RA_OF_ASC_NODE": 289.4706, "ARG_OF_PERICENTER": 1.4067, "MEAN_ANOMALY": 54.8119, "EPHEMERIS_TYPE": 0, "CLASSIFICATION_TYPE": "U", "NORAD_CAT_ID": 34409, "ELEMENT_SET_NO": 999, "REV_AT_EPOCH": 89326, "BSTAR": 0.00022339533, "MEAN_MOTION_DOT": 1.043e-05, "MEAN_MOTION_DDOT": 0}, "tle": {"line1": "1 34409U 93036RA  25355.88382144  .00001043  00000+0  22340-3 0  9990", "line2": "2 34409  74.0637 289.4706 0080264   1.4067  54.8119 14.58048540893268"}}, "geometry": {"type": "Point", "coordinates": [97.24951200156677, 33.15136194475896]}}, {"type": "Feature", "properties": {"norad_id": 34410, "name": "COSMOS 2251 DEB", "group": "cosmos-2251-debris", "lat": -30.34166674297583, "lon": 70.43657798240606, "alt_km": 521.865782595396, "timestamp": "2025-12-22T15:43:49.403816+00:00", "meta": {"OBJECT_NAME": "COSMOS 2251 DEB", "OBJECT_ID": "1993-036RB", "EPOCH": "2025-12-21T23:04:14.008800", "MEAN_MOTION": 15.19724259, "ECCENTRICITY": 0.00214642, "INCLINATION": 73.7367, "RA_OF_ASC_NODE": 242.0783, "ARG_OF_PERICENTER": 81.8998, "MEAN_ANOMALY": 293.3319, "EPHEMERIS_TYPE": 0, "CLASSIFICATION_TYPE": "U", "NORAD_CAT_ID": 34410, "ELEMENT_SET_NO": 999, "REV_AT_EPOCH": 89914, "BSTAR": 0.0023077702, "MEAN_MOTION_DOT": 0.0004993, "MEAN_MOTION_DDOT": 0}, "tle": {"line1": "1 34410U 93036RB  25355.96127325  .00049930  00000+0  23078-2 0  9994", "line2": "2 34410  73.7367 242.0783 0021464  81.8998 293.3319 15.19724259899149"}}, "geometry": {"type": "Point", "coordinates": [70.43657798240606, -30.34166674297583]}}, {"type": "Feature", "properties": {"norad_id": 34412, "name": "COSMOS 2251 DEB", "group": "cosmos-2251-debris", "lat": -32.876138642891554, "lon": -64.76301983744148, "alt_km": 699.226535066704, "timestamp": "2025-12-22T15:43:49.403827+00:00", "meta": {"OBJECT_NAME": "COSMOS 2251 DEB", "OBJECT_ID": "1993-036RD", "EPOCH": "2025-12-21T06:42:21.482784", "MEAN_MOTION": 14.47229294, "ECCENTRICITY": 0.01875477, "INCLINATION": 73.9486, "RA_OF_ASC_NODE": 308.5482, "ARG_OF_PERICENTER": 41.6351, "MEAN_ANOMALY": 319.8911, "EPHEMERIS_TYPE": 0, "CLASSIFICATION_TYPE": "U", "NORAD_CAT_ID": 34412, "ELEMENT_SET_NO": 999, "REV_AT_EPOCH": 87774, "BSTAR": 0.0012144064, "MEAN_MOTION_DOT": 5.508e-05, "MEAN_MOTION_DDOT": 0}, "tle": {"line1": "1 34412U 93036RD  25355.27941531  .00005508  00000+0  12144-2 0  9998", "line2": "2 34412  73.9486 308.5482 0187547  41.6351 319.8911 14.47229294877744"}}, "geometry": {"type": "Point", "coordinates": [-64.76301983744148, -32.876138642891554]}}, {"type": "Feature", "properties": {"norad_id": 34413, "name": "COSMOS 2251 DEB", "group": "cosmos-2251-debris", "lat": 4.723601698685899, "lon": 65.51325922799164, "alt_km": 850.7259102057869, "timestamp": "2025-12-22T15:43:49.403837+00:00", "meta": {"OBJECT_NAME": "COSMOS 2251 DEB", "OBJECT_ID": "1993-036RE", "EPOCH": "2025-12-22T03:44:12.693408", "MEAN_MOTION": 14.29164987, "ECCENTRICITY": 0.00909653, "INCLINATION": 74.0306, "RA_OF_ASC_NODE": 247.7764, "ARG_OF_PERICENTER": 322.5234, "MEAN_ANOMALY": 162.9418, "EPHEMERIS_TYPE": 0, "CLASSIFICATION_TYPE": "U", "NORAD_CAT_ID": 34413, "ELEMENT_SET_NO": 999, "REV_AT_EPOCH": 87265, "BSTAR": 0.0012658847, "MEAN_MOTION_DOT": 3.334e-05, "MEAN_MOTION_DDOT": 0}, "tle": {"line1": "1 34413U 93036RE  25356.15570247  .00003334  00000+0  12659-2 0  9995", "line2": "2 34413  74.0306 247.7764 0090965 322.5234 162.9418 14.29164987872654"}}, "geometry": {"type": "Point", "coordinates": [65.51325922799164, 4.723601698685899]}}, {"type": "Feature", "properties": {"norad_id": 34420, "name": "COSMOS 2251 DEB", "group": "cosmos-2251-debris", "lat": -43.882217481632765, "lon": -79.23743331482605, "alt_km": 603.4944074694258, "timestamp": "2025-12-22T15:43:49.403847+00:00", "meta": {"OBJECT_NAME": "COSMOS 2251 DEB", "OBJECT_ID": "1993-036RM", "EPOCH": "2025-12-22T01:55:12.984960", "MEAN_MOTION": 14.68323835, "ECCENTRICITY": 0.01062249, "INCLINATION": 74.0334, "RA_OF_ASC_NODE": 85.8925, "ARG_OF_PERICENTER": 204.8179, "MEAN_ANOMALY": 220.3722, "EPHEMERIS_TYPE": 0, "CLASSIFICATION_TYPE": "U", "NORAD_CAT_ID": 34420, "ELEMENT_SET_NO": 999, "REV_AT_EPOCH": 89907, "BSTAR": 0.00020277331, "MEAN_MOTION_DOT": 1.239e-05, "MEAN_MOTION_DDOT": 0}, "tle": {"line1": "1 34420U 93036RM  25356.08001140  .00001239  00000+0  20277-3 0  9994", "line2": "2 34420  74.0334  85.8925 0106224 204.8179 220.3722 14.68323835899073"}}, "geometry": {"type": "Point", "coordinates": [-79.23743331482605, -43.882217481632765]}}, {"type": "Feature", "properties": {"norad_id": 34425, "name": "COSMOS 2251 DEB", "group": "cosmos-2251-debris", "lat": 73.7014886424166, "lon": 136.94888682372348, "alt_km": 671.7422306288772, "timestamp": "2025-12-22T15:43:49.403857+00:00", "meta": {"OBJECT_NAME": "COSMOS 2251 DEB", "OBJECT_ID": "1993-036RS", "EPOCH": "2025-12-21T06:27:49.476096", "MEAN_MOTION": 14.62170318, "ECCENTRICITY": 0.0024348, "INCLINATION": 74.0185, "RA_OF_ASC_NODE": 38.1671, "ARG_OF_PERICENTER": 162.2654, "MEAN_ANOMALY": 197.9368, "EPHEMERIS_TYPE": 0, "CLASSIFICATION_TYPE": "U", "NORAD_CAT_ID": 34425, "ELEMENT_SET_NO": 999, "REV_AT_EPOCH": 88865, "BSTAR": 0.00038687, "MEAN_MOTION_DOT": 1.925e-05, "MEAN_MOTION_DDOT": 0}, "tle": {"line1": "1 34425U 93036RS  25355.26932264  .00001925  00000+0  38687-3 0  9994", "line2": "2 34425  74.0185  38.1671 0024348 162.2654 197.9368 14.62170318888659"}}, "geometry": {"type": "Point", "coordinates": [136.94888682372348, 73.7014886424166]}}, {"type": "Feature", "properties": {"norad_id": 34429, "name": "COSMOS 2251 DEB", "group": "cosmos-2251-debris", "lat": 5.008366556193265, "lon": -35.06472963236743, "alt_km": 439.9147184381545, "timestamp": "2025-12-22T15:43:49.403868+00:00", "meta": {"OBJECT_NAME": "COSMOS 2251 DEB", "OBJECT_ID": "1993-036RW", "EPOCH": "2025-12-21T17:16:48.118368", "MEAN_MOTION": 15.45129102, "ECCENTRICITY": 0.00121557, "INCLINATION": 73.9669, "RA_OF_ASC_NODE": 148.4249, "ARG_OF_PERICENTER": 348.9874, "MEAN_ANOMALY": 23.9309, "EPHEMERIS_TYPE": 0, "CLASSIFICATION_TYPE": "U", "NORAD_CAT_ID": 34429, "ELEMENT_SET_NO": 999, "REV_AT_EPOCH": 89587, "BSTAR": 0.0050564038, "MEAN_MOTION_DOT": 0.00247928, "MEAN_MOTION_DDOT": 0}, "tle": {"line1": "1 34429U 93036RW  25355.72000137  .00247928  00000+0  50564-2 0  9996", "line2": "2 34429  73.9669 148.4249 0012155 348.9874  23.9309 15.45129102895876"}}, "geometry": {"type": "Point", "coordinates": [-35.06472963236743, 5.008366556193265]}}, {"type": "Feature", "properties": {"norad_id": 34430, "name": "COSMOS 2251 DEB", "group": "cosmos-2251-debris", "lat": 26.33339526362086, "lon": 96.93055165225098, "alt_km": 799.0661814163868, "timestamp": "2025-12-22T15:43:49.403879+00:00", "meta": {"OBJECT_NAME": "COSMOS 2251 DEB", "OBJECT_ID": "1993-036RX", "EPOCH": "2025-12-22T05:01:08.832864", "MEAN_MOTION": 14.39659857, "ECCENTRICITY": 0.00607859, "INCLINATION": 74.0518, "RA_OF_ASC_NODE": 285.8903, "ARG_OF_PERICENTER": 353.3235, "MEAN_ANOMALY": 6.7102, "EPHEMERIS_TYPE": 0, "CLASSIFICATION_TYPE": "U", "NORAD_CAT_ID": 34430, "ELEMENT_SET_NO": 999, "REV_AT_EPOCH": 88091, "BSTAR": 0.00042542732, "MEAN_MOTION_DOT": 1.333e-05, "MEAN_MOTION_DDOT": 0}, "tle": {"line1": "1 34430U 93036RX  25356.20913001  .00001333  00000+0  42543-3 0  9992", "line2": "2 34430  74.0518 285.8903 0060785 353.3235   6.7102 14.39659857880915"}}, "geometry": {"type": "Point", "coordinates": [96.93055165225098, 26.33339526362086]}}, {"type": "Feature", "properties": {"norad_id": 34431, "name": "COSMOS 2251 DEB", "group": "cosmos-2251-debris", "lat": 24.888450048909796, "lon": 164.8634927756276, "alt_km": 814.3796225530186, "timestamp": "2025-12-22T15:43:49.403889+00:00", "meta": {"OBJECT_NAME": "COSMOS 2251 DEB", "OBJECT_ID": "1993-036RY", "EPOCH": "2025-12-21T21:07:25.927680", "MEAN_MOTION": 14.28804187, "ECCENTRICITY": 0.00678663, "INCLINATION": 74.0739, "RA_OF_ASC_NODE": 158.6541, "ARG_OF_PERICENTER": 141.926, "MEAN_ANOMALY": 218.6714, "EPHEMERIS_TYPE": 0, "CLASSIFICATION_TYPE": "U", "NORAD_CAT_ID": 34431, "ELEMENT_SET_NO": 999, "REV_AT_EPOCH": 87273, "BSTAR": 0.00062894402, "MEAN_MOTION_DOT": 1.6e-05, "MEAN_MOTION_DDOT": 0}, "tle": {"line1": "1 34431U 93036RY  25355.88016120  .00001600  00000+0  62894-3 0  9990", "line2": "2 34431  74.0739 158.6541 0067866 141.9260 218.6714 14.28804187872732"}}, "geometry": {"type": "Point", "coordinates": [164.8634927756276, 24.888450048909796]}}]}